TIANTONG-1 2            
1 46916U 20082A   26117.01782128 -.00000368  00000+0  00000+0 0  9990
2 46916   0.8630 320.8090 0002038  63.5158 322.0383  1.00273274 20142
ATLAS 5 CENTAUR DEB     
1 47096U 14055DE  26115.84679438 -.00000007  00000+0  00000+0 0  9991
2 47096  19.3162 171.4325 4872713 115.8052 301.6330  1.79153890 36184
LUCAS (JDRS-1)          
1 47202U 20089A   26117.19191774 -.00000246  00000+0  00000+0 0  9991
2 47202   0.0060  20.2012 0002288  14.2202 340.6290  1.00273103 19901
SXM-7                   
1 47240U 20096A   26117.23750303 -.00000216  00000+0  00000+0 0  9992
2 47240   0.0343  68.8464 0004328  56.1523  90.5776  1.00273819  6937
BREEZE-M DEB [TANK]     
1 47243U 20097B   26116.41946393  .00000581  00000+0  53701-3 0  9995
2 47243  58.3161 118.9068 7307928 107.2670 338.5994  2.20504694 43064
CMS-01                  
1 47256U 20099A   26117.00958792 -.00000176  00000+0  00000+0 0  9994
2 47256   0.0637  87.8019 0004962 207.7632   5.8847  1.00272482 19685
TURKSAT 5A              
1 47306U 21001A   26117.20600329  .00000144  00000+0  00000+0 0  9990
2 47306   0.0088  73.4190 0000047 270.1463 336.7066  1.00271126 19456
FALCON 9 R/B            
1 47307U 21001B   26116.47620192  .00001298  00000+0  24647-2 0  9996
2 47307  15.7621 202.2908 7784694   6.3527 359.5159  1.65215740 29308
TIANTONG-1 3            
1 47321U 21003A   26117.00924125 -.00000168  00000+0  00000+0 0  9997
2 47321   1.8004 336.2606 0003182  62.0160 261.5444  1.00269596 19449
TJS-6                   
1 47613U 21010A   26116.60225333  .00000032  00000+0  00000+0 0  9998
2 47613   0.4684  88.4096 0003021 312.2760 209.2609  1.00273977 19292
ARKTIKA-M 1             
1 47719U 21016A   26113.16409645 -.00000101  00000+0  00000+0 0  9997
2 47719  63.2246  65.5569 7266494 269.6808  14.9538  2.00609676 37686
FREGAT R/B              
1 47720U 21016B   26116.70165330 -.00001407  00000+0  00000+0 0  9992
2 47720  63.2421  57.4426 7390038 267.3963  14.7173  1.98967378 37410
SHIYAN-9 (SY-9)         
1 47851U 21019A   26116.40270649 -.00000256  00000+0  00000+0 0  9998
2 47851  16.6411 303.1128 0015243  29.6463 173.1752  1.00264470 23611
SL-6 DEB                
1 48261U 80063E   26116.84185064  .00000119  00000+0  13792-2 0  9994
2 48261  63.9769 351.8166 7116033 284.3141  11.7755  2.11465783 95925
SL-6 DEB                
1 48262U 80063F   26109.19396623 -.00001308  00000+0 -86922-2 0  9998
2 48262  63.6536  11.2824 7221585 280.8858 329.5968  2.05114159 92955
SL-6 DEB                
1 48265U 81123E   26116.20721380  .00000068  00000+0  00000+0 0  9991
2 48265  62.2709  71.4415 7117364 276.2793 149.2291  2.19419094 99599
COSMOS 1367 DEB         
1 48266U 82045E   26114.30476013 -.00000819  00000+0 -63841-2 0  9996
2 48266  64.2656  58.4292 7204373  13.2780 358.3093  2.06329482 46517
