[{"OBJECT_NAME":"TIANTONG-1 2","OBJECT_ID":"2020-082A","EPOCH":"2026-04-27T00:25:39.758592","MEAN_MOTION":1.00273274,"ECCENTRICITY":0.00020381,"INCLINATION":0.863,"RA_OF_ASC_NODE":320.809,"ARG_OF_PERICENTER":63.5158,"MEAN_ANOMALY":322.0383,"EPHEMERIS_TYPE":0,"CLASSIFICATION_TYPE":"U","NORAD_CAT_ID":46916,"ELEMENT_SET_NO":999,"REV_AT_EPOCH":2014,"BSTAR":0,"MEAN_MOTION_DOT":-3.68e-6,"MEAN_MOTION_DDOT":0},{"OBJECT_NAME":"ATLAS 5 CENTAUR DEB","OBJECT_ID":"2014-055DE","EPOCH":"2026-04-25T20:19:23.034432","MEAN_MOTION":1.7915389,"ECCENTRICITY":0.48727135,"INCLINATION":19.3162,"RA_OF_ASC_NODE":171.4325,"ARG_OF_PERICENTER":115.8052,"MEAN_ANOMALY":301.633,"EPHEMERIS_TYPE":0,"CLASSIFICATION_TYPE":"U","NORAD_CAT_ID":47096,"ELEMENT_SET_NO":999,"REV_AT_EPOCH":3618,"BSTAR":0,"MEAN_MOTION_DOT":-7.0e-8,"MEAN_MOTION_DDOT":0},{"OBJECT_NAME":"LUCAS (JDRS-1)","OBJECT_ID":"2020-089A","EPOCH":"2026-04-27T04:36:21.692736","MEAN_MOTION":1.00273103,"ECCENTRICITY":0.0002288,"INCLINATION":0.006,"RA_OF_ASC_NODE":20.2012,"ARG_OF_PERICENTER":14.2202,"MEAN_ANOMALY":340.629,"EPHEMERIS_TYPE":0,"CLASSIFICATION_TYPE":"U","NORAD_CAT_ID":47202,"ELEMENT_SET_NO":999,"REV_AT_EPOCH":1990,"BSTAR":0,"MEAN_MOTION_DOT":-2.46e-6,"MEAN_MOTION_DDOT":0},{"OBJECT_NAME":"SXM-7","OBJECT_ID":"2020-096A","EPOCH":"2026-04-27T05:42:00.261792","MEAN_MOTION":1.00273819,"ECCENTRICITY":0.00043287,"INCLINATION":0.0343,"RA_OF_ASC_NODE":68.8464,"ARG_OF_PERICENTER":56.1523,"MEAN_ANOMALY":90.5776,"EPHEMERIS_TYPE":0,"CLASSIFICATION_TYPE":"U","NORAD_CAT_ID":47240,"ELEMENT_SET_NO":999,"REV_AT_EPOCH":693,"BSTAR":0,"MEAN_MOTION_DOT":-2.16e-6,"MEAN_MOTION_DDOT":0},{"OBJECT_NAME":"BREEZE-M DEB [TANK]","OBJECT_ID":"2020-097B","EPOCH":"2026-04-26T10:04:01.683552","MEAN_MOTION":2.20504694,"ECCENTRICITY":0.73079288,"INCLINATION":58.3161,"RA_OF_ASC_NODE":118.9068,"ARG_OF_PERICENTER":107.267,"MEAN_ANOMALY":338.5994,"EPHEMERIS_TYPE":0,"CLASSIFICATION_TYPE":"U","NORAD_CAT_ID":47243,"ELEMENT_SET_NO":999,"REV_AT_EPOCH":4306,"BSTAR":0.00053701199,"MEAN_MOTION_DOT":5.81e-6,"MEAN_MOTION_DDOT":0},{"OBJECT_NAME":"CMS-01","OBJECT_ID":"2020-099A","EPOCH":"2026-04-27T00:13:48.396288","MEAN_MOTION":1.00272482,"ECCENTRICITY":0.00049626,"INCLINATION":0.0637,"RA_OF_ASC_NODE":87.8019,"ARG_OF_PERICENTER":207.7632,"MEAN_ANOMALY":5.8847,"EPHEMERIS_TYPE":0,"CLASSIFICATION_TYPE":"U","NORAD_CAT_ID":47256,"ELEMENT_SET_NO":999,"REV_AT_EPOCH":1968,"BSTAR":0,"MEAN_MOTION_DOT":-1.76e-6,"MEAN_MOTION_DDOT":0},{"OBJECT_NAME":"TURKSAT 5A","OBJECT_ID":"2021-001A","EPOCH":"2026-04-27T04:56:38.684256","MEAN_MOTION":1.00271126,"ECCENTRICITY":4.77e-6,"INCLINATION":0.0088,"RA_OF_ASC_NODE":73.419,"ARG_OF_PERICENTER":270.1463,"MEAN_ANOMALY":336.7066,"EPHEMERIS_TYPE":0,"CLASSIFICATION_TYPE":"U","NORAD_CAT_ID":47306,"ELEMENT_SET_NO":999,"REV_AT_EPOCH":1945,"BSTAR":0,"MEAN_MOTION_DOT":1.44e-6,"MEAN_MOTION_DDOT":0},{"OBJECT_NAME":"FALCON 9 R/B","OBJECT_ID":"2021-001B","EPOCH":"2026-04-26T11:25:43.845888","MEAN_MOTION":1.6521574,"ECCENTRICITY":0.77846949,"INCLINATION":15.7621,"RA_OF_ASC_NODE":202.2908,"ARG_OF_PERICENTER":6.3527,"MEAN_ANOMALY":359.5159,"EPHEMERIS_TYPE":0,"CLASSIFICATION_TYPE":"U","NORAD_CAT_ID":47307,"ELEMENT_SET_NO":999,"REV_AT_EPOCH":2930,"BSTAR":0.0024646752,"MEAN_MOTION_DOT":1.298e-5,"MEAN_MOTION_DDOT":0},{"OBJECT_NAME":"TIANTONG-1 3","OBJECT_ID":"2021-003A","EPOCH":"2026-04-27T00:13:18.444000","MEAN_MOTION":1.00269596,"ECCENTRICITY":0.00031823,"INCLINATION":1.8004,"RA_OF_ASC_NODE":336.2606,"ARG_OF_PERICENTER":62.016,"MEAN_ANOMALY":261.5444,"EPHEMERIS_TYPE":0,"CLASSIFICATION_TYPE":"U","NORAD_CAT_ID":47321,"ELEMENT_SET_NO":999,"REV_AT_EPOCH":1944,"BSTAR":0,"MEAN_MOTION_DOT":-1.68e-6,"MEAN_MOTION_DDOT":0},{"OBJECT_NAME":"TJS-6","OBJECT_ID":"2021-010A","EPOCH":"2026-04-26T14:27:14.687712","MEAN_MOTION":1.00273977,"ECCENTRICITY":0.0003021,"INCLINATION":0.4684,"RA_OF_ASC_NODE":88.4096,"ARG_OF_PERICENTER":312.276,"MEAN_ANOMALY":209.2609,"EPHEMERIS_TYPE":0,"CLASSIFICATION_TYPE":"U","NORAD_CAT_ID":47613,"ELEMENT_SET_NO":999,"REV_AT_EPOCH":1929,"BSTAR":0,"MEAN_MOTION_DOT":3.2e-7,"MEAN_MOTION_DDOT":0},{"OBJECT_NAME":"ARKTIKA-M 1","OBJECT_ID":"2021-016A","EPOCH":"2026-04-23T03:56:17.933280","MEAN_MOTION":2.00609676,"ECCENTRICITY":0.72664948,"INCLINATION":63.2246,"RA_OF_ASC_NODE":65.5569,"ARG_OF_PERICENTER":269.6808,"MEAN_ANOMALY":14.9538,"EPHEMERIS_TYPE":0,"CLASSIFICATION_TYPE":"U","NORAD_CAT_ID":47719,"ELEMENT_SET_NO":999,"REV_AT_EPOCH":3768,"BSTAR":0,"MEAN_MOTION_DOT":-1.01e-6,"MEAN_MOTION_DDOT":0},{"OBJECT_NAME":"FREGAT R/B","OBJECT_ID":"2021-016B","EPOCH":"2026-04-26T16:50:22.845120","MEAN_MOTION":1.98967378,"ECCENTRICITY":0.73900383,"INCLINATION":63.2421,"RA_OF_ASC_NODE":57.4426,"ARG_OF_PERICENTER":267.3963,"MEAN_ANOMALY":14.7173,"EPHEMERIS_TYPE":0,"CLASSIFICATION_TYPE":"U","NORAD_CAT_ID":47720,"ELEMENT_SET_NO":999,"REV_AT_EPOCH":3741,"BSTAR":0,"MEAN_MOTION_DOT":-1.407e-5,"MEAN_MOTION_DDOT":0},{"OBJECT_NAME":"SHIYAN-9 (SY-9)","OBJECT_ID":"2021-019A","EPOCH":"2026-04-26T09:39:53.840736","MEAN_MOTION":1.0026447,"ECCENTRICITY":0.0015243,"INCLINATION":16.6411,"RA_OF_ASC_NODE":303.1128,"ARG_OF_PERICENTER":29.6463,"MEAN_ANOMALY":173.1752,"EPHEMERIS_TYPE":0,"CLASSIFICATION_TYPE":"U","NORAD_CAT_ID":47851,"ELEMENT_SET_NO":999,"REV_AT_EPOCH":2361,"BSTAR":0,"MEAN_MOTION_DOT":-2.56e-6,"MEAN_MOTION_DDOT":0},{"OBJECT_NAME":"SL-6 DEB","OBJECT_ID":"1980-063E","EPOCH":"2026-04-26T20:12:15.895296","MEAN_MOTION":2.11465783,"ECCENTRICITY":0.71160334,"INCLINATION":63.9769,"RA_OF_ASC_NODE":351.8166,"ARG_OF_PERICENTER":284.3141,"MEAN_ANOMALY":11.7755,"EPHEMERIS_TYPE":0,"CLASSIFICATION_TYPE":"U","NORAD_CAT_ID":48261,"ELEMENT_SET_NO":999,"REV_AT_EPOCH":9592,"BSTAR":0.0013792157,"MEAN_MOTION_DOT":1.19e-6,"MEAN_MOTION_DDOT":0},{"OBJECT_NAME":"SL-6 DEB","OBJECT_ID":"1980-063F","EPOCH":"2026-04-19T04:39:18.682272","MEAN_MOTION":2.05114159,"ECCENTRICITY":0.72215857,"INCLINATION":63.6536,"RA_OF_ASC_NODE":11.2824,"ARG_OF_PERICENTER":280.8858,"MEAN_ANOMALY":329.5968,"EPHEMERIS_TYPE":0,"CLASSIFICATION_TYPE":"U","NORAD_CAT_ID":48262,"ELEMENT_SET_NO":999,"REV_AT_EPOCH":9295,"BSTAR":-0.0086921841,"MEAN_MOTION_DOT":-1.308e-5,"MEAN_MOTION_DDOT":0},{"OBJECT_NAME":"SL-6 DEB","OBJECT_ID":"1981-123E","EPOCH":"2026-04-26T04:58:23.272320","MEAN_MOTION":2.19419094,"ECCENTRICITY":0.7117364,"INCLINATION":62.2709,"RA_OF_ASC_NODE":71.4415,"ARG_OF_PERICENTER":276.2793,"MEAN_ANOMALY":149.2291,"EPHEMERIS_TYPE":0,"CLASSIFICATION_TYPE":"U","NORAD_CAT_ID":48265,"ELEMENT_SET_NO":999,"REV_AT_EPOCH":9959,"BSTAR":0,"MEAN_MOTION_DOT":6.8e-7,"MEAN_MOTION_DDOT":0},{"OBJECT_NAME":"COSMOS 1367 DEB","OBJECT_ID":"1982-045E","EPOCH":"2026-04-24T07:18:51.275232","MEAN_MOTION":2.06329482,"ECCENTRICITY":0.72043734,"INCLINATION":64.2656,"RA_OF_ASC_NODE":58.4292,"ARG_OF_PERICENTER":13.278,"MEAN_ANOMALY":358.3093,"EPHEMERIS_TYPE":0,"CLASSIFICATION_TYPE":"U","NORAD_CAT_ID":48266,"ELEMENT_SET_NO":999,"REV_AT_EPOCH":4651,"BSTAR":-0.0063840845,"MEAN_MOTION_DOT":-8.19e-6,"MEAN_MOTION_DDOT":0}]
